NORAD_CAT_ID,OBJECT_NAME,OBJECT_TYPE,EPOCH,MEAN_MOTION,ECCENTRICITY,INCLINATION,RA_OF_ASC_NODE,ARG_OF_PERICENTER,MEAN_ANOMALY,BSTAR,MEAN_MOTION_DOT,MEAN_MOTION_DDOT,TLE_LINE0,TLE_LINE1,TLE_LINE2,SEMIMAJOR_AXIS,PERIOD,APOGEE,PERIGEE,DECAYED
54804.0,STARLINK-5422,PAYLOAD,2023-10-19 09:05:40,15.08851662,0.0001646,53.2174,344.8364,87.0279,273.0901,0.00021177,3.085e-05,0.0,0 STARLINK-5422,1 54804U 22175AY  23292.37894590  .00003085  00000-0  21177-3 0  9998,2 54804  53.2174 344.8364 0001646  87.0279 273.0901 15.08851662 48441,6917.845,95.437,540.848,538.571,0.0
54804.0,STARLINK-5422,PAYLOAD,2023-10-19 20:13:22,15.08848825,0.0001611,53.2168,342.7549,84.6289,275.4887,0.00010807,1.433e-05,0.0,0 STARLINK-5422,1 54804U 22175AY  23292.84262476  .00001433  00000-0  10807-3 0  9995,2 54804  53.2168 342.7549 0001611  84.6289 275.4887 15.08848825 46356,6917.853,95.437,540.833,538.604,0.0
54804.0,STARLINK-5422,PAYLOAD,2023-10-20 10:31:51,15.08835156,0.0001554,53.2179,340.0791,89.6206,270.4965,-4.7602e-05,-1.045e-05,0.0,0 STARLINK-5422,1 54804U 22175AY  23293.43879167 -.00001045  00000-0 -47602-4 0  9997,2 54804  53.2179 340.0791 0001554  89.6206 270.4965 15.08835156 46443,6917.895,95.438,540.835,538.685,0.0
54804.0,STARLINK-5422,PAYLOAD,2023-10-20 12:07:14,15.08837286,0.000155,53.2181,339.7809,84.9572,275.1597,-3.5555e-06,-3.45e-06,0.0,0 STARLINK-5422,1 54804U 22175AY  23293.50503107 -.00000345  00000-0 -35555-5 0  9990,2 54804  53.2181 339.7809 0001550  84.9572 275.1597 15.08837286 48611,6917.889,95.438,540.826,538.681,0.0
54804.0,STARLINK-5422,PAYLOAD,2023-10-21 10:22:39,15.08841114,0.0001862,53.2189,335.6188,83.1737,276.9467,0.00020106,2.913e-05,0.0,0 STARLINK-5422,1 54804U 22175AY  23294.43239613  .00002913  00000-0  20106-3 0  9996,2 54804  53.2189 335.6188 0001862  83.1737 276.9467 15.08841114 48759,6917.877,95.437,541.03,538.454,0.0
54804.0,STARLINK-5422,PAYLOAD,2023-10-21 19:54:57,15.08844577,0.0001694,53.2185,333.8341,82.3408,277.7776,0.00033092,4.983e-05,0.0,0 STARLINK-5422,1 54804U 22175AY  23294.82983474  .00004983  00000-0  33092-3 0  9997,2 54804  53.2185 333.8341 0001694  82.3408 277.7776 15.08844577 46650,6917.866,95.437,540.903,538.56,0.0
54804.0,STARLINK-5422,PAYLOAD,2023-10-22 10:13:25,15.0884234,0.0001479,53.2175,331.1593,86.3028,273.8133,0.00020949,3.048e-05,0.0,0 STARLINK-5422,1 54804U 22175AY  23295.42599512  .00003048  00000-0  20949-3 0  9998,2 54804  53.2175 331.1593 0001479  86.3028 273.8133 15.08842340 46742,6917.873,95.437,540.761,538.715,0.0
54804.0,STARLINK-5422,PAYLOAD,2023-10-22 11:48:48,15.08845961,0.0001496,53.2177,330.861,86.5703,273.5461,0.0002704,4.019e-05,0.0,0 STARLINK-5422,1 54804U 22175AY  23295.49223368  .00004019  00000-0  27040-3 0  9996,2 54804  53.2177 330.8610 0001496  86.5703 273.5461 15.08845961 48915,6917.862,95.437,540.762,538.692,0.0
54804.0,STARLINK-5422,PAYLOAD,2023-10-22 19:45:44,15.08838747,0.0001683,53.219,329.37,94.1623,265.9562,8.6792e-05,1.093e-05,0.0,0 STARLINK-5422,1 54804U 22175AY  23295.82343693  .00001093  00000-0  86792-4 0  9996,2 54804  53.2190 329.3700 0001683  94.1623 265.9562 15.08838747 48963,6917.884,95.438,540.913,538.585,0.0
54804.0,STARLINK-5422,PAYLOAD,2023-10-23 08:28:50,15.08839351,0.00016,53.2175,326.9913,95.7841,264.3334,3.7533e-05,3.09e-06,0.0,0 STARLINK-5422,1 54804U 22175AY  23296.35335782  .00000309  00000-0  37533-4 0  9993,2 54804  53.2175 326.9913 0001600  95.7841 264.3334 15.08839351 46884,6917.882,95.438,540.854,538.641,0.0
54804.0,STARLINK-5422,PAYLOAD,2023-10-23 19:36:32,15.08839037,0.0001531,53.2174,324.9102,95.2715,264.8451,4.3036e-05,3.97e-06,0.0,0 STARLINK-5422,1 54804U 22175AY  23296.81704008  .00000397  00000-0  43036-4 0  9997,2 54804  53.2174 324.9102 0001531  95.2715 264.8451 15.08839037 49114,6917.883,95.438,540.807,538.689,0.0
54804.0,STARLINK-5422,PAYLOAD,2023-10-24 08:19:37,15.08841162,0.0001526,53.2167,322.5329,92.4739,267.6428,7.4303e-05,8.95e-06,0.0,0 STARLINK-5422,1 54804U 22175AY  23297.34696094  .00000895  00000-0  74303-4 0  9995,2 54804  53.2167 322.5329 0001526  92.4739 267.6428 15.08841162 49195,6917.877,95.437,540.798,538.686,0.0
54804.0,STARLINK-5422,PAYLOAD,2023-10-25 08:10:24,15.08849538,0.0001584,53.2163,318.0725,93.9051,266.2122,0.00027515,4.095e-05,0.0,0 STARLINK-5422,1 54804U 22175AY  23298.34055683  .00004095  00000-0  27515-3 0  9997,2 54804  53.2163 318.0725 0001584  93.9051 266.2122 15.08849538 47186,6917.851,95.437,540.812,538.62,0.0
54804.0,STARLINK-5422,PAYLOAD,2023-10-26 01:39:38,15.08842314,0.0001721,53.2164,314.8014,94.2888,265.8301,9.0451e-05,1.152e-05,0.0,0 STARLINK-5422,1 54804U 22175AY  23299.06919950  .00001152  00000-0  90451-4 0  9994,2 54804  53.2164 314.8014 0001721  94.2888 265.8301 15.08842314 47298,6917.873,95.437,540.929,538.548,0.0
54804.0,STARLINK-5422,PAYLOAD,2023-10-26 09:36:34,15.08842124,0.0001634,53.218,313.3154,93.4831,266.6348,9.4391e-05,1.215e-05,0.0,0 STARLINK-5422,1 54804U 22175AY  23299.40040018  .00001215  00000-0  94391-4 0  9999,2 54804  53.2180 313.3154 0001634  93.4831 266.6348 15.08842124 49502,6917.874,95.437,540.869,538.609,0.0
54804.0,STARLINK-5422,PAYLOAD,2023-10-26 17:33:30,15.08840064,0.0001719,53.2184,311.8294,94.7453,265.3735,3.1922e-05,2.2e-06,0.0,0 STARLINK-5422,1 54804U 22175AY  23299.73160212  .00000220  00000-0  31922-4 0  9990,2 54804  53.2184 311.8294 0001719  94.7453 265.3735 15.08840064 49554,6917.88,95.438,540.934,538.556,0.0
54804.0,STARLINK-5422,PAYLOAD,2023-10-27 04:41:11,15.08847515,0.000159,53.2182,309.7457,95.9239,264.1935,4.8469e-05,4.84e-06,0.0,0 STARLINK-5422,1 54804U 22175AY  23300.19527619  .00000484  00000-0  48469-4 0  9997,2 54804  53.2182 309.7457 0001590  95.9239 264.1935 15.08847515 47466,6917.857,95.437,540.822,538.622,0.0
54804.0,STARLINK-5422,PAYLOAD,2023-10-27 07:51:57,15.08853915,0.0001833,53.2183,309.1527,104.8656,255.2539,6.2046e-05,7e-06,0.0,0 STARLINK-5422,1 54804U 22175AY  23300.32775078  .00000700  00000-0  62046-4 0  9994,2 54804  53.2183 309.1527 0001833 104.8656 255.2539 15.08853915 49646,6917.838,95.437,540.971,538.435,0.0
54804.0,STARLINK-5422,PAYLOAD,2023-10-27 17:24:16,15.08842346,0.0001618,53.2172,307.3687,99.2646,260.8529,1.2292e-05,-9.2e-07,0.0,0 STARLINK-5422,1 54804U 22175AY  23300.72519475 -.00000092  00000-0  12292-4 0  9998,2 54804  53.2172 307.3687 0001618  99.2646 260.8529 15.08842346 49702,6917.873,95.437,540.858,538.619,0.0
54804.0,STARLINK-5422,PAYLOAD,2023-10-28 01:21:13,15.08826245,0.0001447,53.2177,305.881,91.5207,268.5951,-0.00014428,-2.583e-05,0.0,0 STARLINK-5422,1 54804U 22175AY  23301.05640477 -.00002583  00000-0 -14428-3 0  9992,2 54804  53.2177 305.8810 0001447  91.5207 268.5951 15.08826245 47595,6917.922,95.438,540.788,538.786,0.0
54804.0,STARLINK-5422,PAYLOAD,2023-10-28 07:42:45,15.0883124,0.0001532,53.2173,304.6921,96.665,263.4516,-6.0605e-05,-1.252e-05,0.0,0 STARLINK-5422,1 54804U 22175AY  23301.32136369 -.00001252  00000-0 -60605-4 0  9993,2 54804  53.2173 304.6921 0001532  96.6650 263.4516 15.08831240 49790,6917.907,95.438,540.832,538.712,0.0
54804.0,STARLINK-5422,PAYLOAD,2023-10-28 17:15:04,15.08835028,0.0001558,53.2175,302.9077,92.0298,268.0873,3.8028e-05,3.17e-06,0.0,0 STARLINK-5422,1 54804U 22175AY  23301.71880438  .00000317  00000-0  38028-4 0  9992,2 54804  53.2175 302.9077 0001558  92.0298 268.0873 15.08835028 47693,6917.896,95.438,540.838,538.683,0.0
54804.0,STARLINK-5422,PAYLOAD,2023-10-29 07:33:32,15.08850245,0.0001503,53.2163,300.2307,91.3368,268.7796,0.00036702,5.56e-05,0.0,0 STARLINK-5422,1 54804U 22175AY  23302.31496015  .00005560  00000-0  36702-3 0  9994,2 54804  53.2163 300.2307 0001503  91.3368 268.7796 15.08850245 47786,6917.849,95.437,540.754,538.674,0.0
54804.0,STARLINK-5422,PAYLOAD,2023-10-29 17:05:51,15.08843,0.0001765,53.2169,298.4473,91.9859,268.1335,0.00032069,4.82e-05,0.0,0 STARLINK-5422,1 54804U 22175AY  23302.71240474  .00004820  00000-0  32069-3 0  9994,2 54804  53.2169 298.4473 0001765  91.9859 268.1335 15.08843000 47846,6917.871,95.437,540.957,538.515,0.0
54804.0,STARLINK-5422,PAYLOAD,2023-10-30 16:56:39,15.08835828,0.0001582,53.2169,293.9852,91.1456,268.9718,4.1643e-05,3.75e-06,0.0,0 STARLINK-5422,1 54804U 22175AY  23303.70600807  .00000375  00000-0  41643-4 0  9994,2 54804  53.2169 293.9852 0001582  91.1456 268.9718 15.08835828 47997,6917.893,95.438,540.853,538.664,0.0
54804.0,STARLINK-5422,PAYLOAD,2023-10-31 08:50:30,15.08843265,0.0001723,53.2175,291.0102,90.2474,269.8715,8.0225e-05,9.89e-06,0.0,0 STARLINK-5422,1 54804U 22175AY  23304.36840786  .00000989  00000-0  80225-4 0  9999,2 54804  53.2175 291.0102 0001723  90.2474 269.8715 15.08843265 50252,6917.87,95.437,540.927,538.543,0.0
54804.0,STARLINK-5422,PAYLOAD,2023-10-31 16:47:26,15.08838408,0.0001677,53.2169,289.5231,91.9993,268.1191,2.7159e-05,1.44e-06,0.0,0 STARLINK-5422,1 54804U 22175AY  23304.69961115  .00000144  00000-0  27159-4 0  9995,2 54804  53.2169 289.5231 0001677  91.9993 268.1191 15.08838408 50301,6917.885,95.438,540.91,538.59,0.0
54804.0,STARLINK-5422,PAYLOAD,2023-11-01 05:30:31,15.0884569,0.0001102,53.2183,287.146,99.4087,260.7029,0.00033668,5.075e-05,0.0,0 STARLINK-5422,1 54804U 22175AY  23305.22952788  .00005075  00000-0  33668-3 0  9990,2 54804  53.2183 287.1460 0001102  99.4087 260.7029 15.08845690 48222,6917.863,95.437,540.49,538.966,0.0
54804.0,STARLINK-5422,PAYLOAD,2023-11-01 08:41:17,15.08855538,0.0001612,53.217,286.5503,98.2246,261.8929,0.0003509,5.303e-05,0.0,0 STARLINK-5422,1 54804U 22175AY  23305.36200355  .00005303  00000-0  35090-3 0  9996,2 54804  53.2170 286.5503 0001612  98.2246 261.8929 15.08855538 48244,6917.833,95.437,540.813,538.583,0.0
54804.0,STARLINK-5422,PAYLOAD,2023-11-01 22:59:45,15.08841153,0.0001821,53.2173,283.8731,95.5923,264.5277,0.00017732,2.535e-05,0.0,0 STARLINK-5422,1 54804U 22175AY  23305.95817104  .00002535  00000-0  17732-3 0  9994,2 54804  53.2173 283.8731 0001821  95.5923 264.5277 15.08841153 50498,6917.877,95.437,541.002,538.482,0.0
